{
    "links": {
        "self": "http://www.neowsapp.com/rest/v1/neo/3767256?api_key=iIulBulltgU6a56xZRHN4H3l9WmuAYTsLGpBGhQ2"
    },
    "id": "3767256",
    "neo_reference_id": "3767256",
    "name": "(2017 BR32)",
    "designation": "2017 BR32",
    "nasa_jpl_url": "http://ssd.jpl.nasa.gov/sbdb.cgi?sstr=3767256",
    "absolute_magnitude_h": 26.7,
    "estimated_diameter": {
        "kilometers": {
            "estimated_diameter_min": 0.0121494041,
            "estimated_diameter_max": 0.0271668934
        },
        "meters": {
            "estimated_diameter_min": 12.14940408,
            "estimated_diameter_max": 27.1668934089
        },
        "miles": {
            "estimated_diameter_min": 0.0075492874,
            "estimated_diameter_max": 0.0168807197
        },
        "feet": {
            "estimated_diameter_min": 39.8602508817,
            "estimated_diameter_max": 89.1302305717
        }
    },
    "is_potentially_hazardous_asteroid": false,
    "close_approach_data": [
        {
            "close_approach_date": "2014-03-11",
            "close_approach_date_full": "2014-Mar-11 01:22",
            "epoch_date_close_approach": 1394500920000,
            "relative_velocity": {
                "kilometers_per_second": "23.0396657957",
                "kilometers_per_hour": "82942.7968645934",
                "miles_per_hour": "51537.428418447"
            },
            "miss_distance": {
                "astronomical": "0.4887559119",
                "lunar": "190.1260497291",
                "kilometers": "73116843.370147653",
                "miles": "45432699.7279294914"
            },
            "orbiting_body": "Earth"
        },
        {
            "close_approach_date": "2017-01-27",
            "close_approach_date_full": "2017-Jan-27 17:41",
            "epoch_date_close_approach": 1485538860000,
            "relative_velocity": {
                "kilometers_per_second": "8.1051266707",
                "kilometers_per_hour": "29178.456014559",
                "miles_per_hour": "18130.3578497131"
            },
            "miss_distance": {
                "astronomical": "0.0197857207",
                "lunar": "7.6966453523",
                "kilometers": "2959901.673134909",
                "miles": "1839197.6149593842"
            },
            "orbiting_body": "Earth"
        },
        {
            "close_approach_date": "2019-11-12",
            "close_approach_date_full": "2019-Nov-12 11:17",
            "epoch_date_close_approach": 1573557420000,
            "relative_velocity": {
                "kilometers_per_second": "16.4559502141",
                "kilometers_per_hour": "59241.4207709141",
                "miles_per_hour": "36810.315034016"
            },
            "miss_distance": {
                "astronomical": "0.2719212793",
                "lunar": "105.7773776477",
                "kilometers": "40678844.190955091",
                "miles": "25276661.6858826158"
            },
            "orbiting_body": "Earth"
        }
    ],
    "orbital_data": {
        "orbit_id": "4",
        "orbit_determination_date": "2017-04-06 08:20:33",
        "first_observation_date": "2017-01-30",
        "last_observation_date": "2017-02-02",
        "data_arc_in_days": 3,
        "observations_used": 30,
        "orbit_uncertainty": "7",
        "minimum_orbit_intersection": ".0170988",
        "jupiter_tisserand_invariant": "3.606",
        "epoch_osculation": "2459000.5",
        "eccentricity": ".5288170592570713",
        "semi_major_axis": "2.046522515523232",
        "inclination": "2.017594938689082",
        "ascending_node_longitude": "333.7709681696371",
        "orbital_period": "1069.358233056196",
        "perihelion_distance": ".9642864971608522",
        "perihelion_argument": "129.7752085718741",
        "aphelion_distance": "3.128758533885612",
        "perihelion_time": "2458832.099366648246",
        "mean_anomaly": "56.69215996342877",
        "mean_motion": ".3366505151142195",
        "equinox": "J2000",
        "orbit_class": {
            "orbit_class_type": "APO",
            "orbit_class_description": "Near-Earth asteroid orbits which cross the Earth’s orbit similar to that of 1862 Apollo",
            "orbit_class_range": "a (semi-major axis) > 1.0 AU; q (perihelion) < 1.017 AU"
        }
    },
    "is_sentry_object": false
}